[{"OBJECT_NAME":"STARLINK-3750","OBJECT_ID":"2022-041BC","EPOCH":"2026-03-09T08:44:24.358848","MEAN_MOTION":15.08840762,"ECCENTRICITY":0.00015079,"INCLINATION":53.2173,"RA_OF_ASC_NODE":90.5831,"ARG_OF_PERICENTER":92.8927,"MEAN_ANOMALY":267.2238,"EPHEMERIS_TYPE":0,"CLASSIFICATION_TYPE":"U","NORAD_CAT_ID":52311,"ELEMENT_SET_NO":999,"REV_AT_EPOCH":21581,"BSTAR":0.00012041242,"MEAN_MOTION_DOT":1.629e-5,"MEAN_MOTION_DDOT":0},{"OBJECT_NAME":"OBJECT H","OBJECT_ID":"2017-042H","EPOCH":"2026-03-09T21:54:40.929408","MEAN_MOTION":15.07257911,"ECCENTRICITY":0.00117342,"INCLINATION":97.4058,"RA_OF_ASC_NODE":233.05,"ARG_OF_PERICENTER":93.954,"MEAN_ANOMALY":266.303,"EPHEMERIS_TYPE":0,"CLASSIFICATION_TYPE":"U","NORAD_CAT_ID":42832,"ELEMENT_SET_NO":999,"REV_AT_EPOCH":47198,"BSTAR":0.00041037265,"MEAN_MOTION_DOT":6.138e-5,"MEAN_MOTION_DDOT":0}]
